CCSDS_OMM_VERS = 2.0
CREATION_DATE  = 
ORIGINATOR     = 

OBJECT_NAME    = IDEFIX & ARIANE 42P R/B
OBJECT_ID      = 2002-021B
CENTER_NAME    = EARTH
REF_FRAME      = TEME
TIME_SYSTEM    = UTC
MEAN_ELEMENT_THEORY = SGP/SGP4

EPOCH          = 2026-01-25T01:48:08.672832
MEAN_MOTION    = 14.30990686
ECCENTRICITY   = .0011176
INCLINATION    = 98.5830
RA_OF_ASC_NODE = 324.2148
ARG_OF_PERICENTER = 320.9119
MEAN_ANOMALY   = 39.1256

EPHEMERIS_TYPE = 0
CLASSIFICATION_TYPE = U
NORAD_CAT_ID   = 27422
ELEMENT_SET_NO = 999
REV_AT_EPOCH   = 23778
BSTAR          = .2527E-3
MEAN_MOTION_DOT = .621E-5
MEAN_MOTION_DDOT = 0

CCSDS_OMM_VERS = 2.0
CREATION_DATE  = 
ORIGINATOR     = 

OBJECT_NAME    = AQUA
OBJECT_ID      = 2002-022A
CENTER_NAME    = EARTH
REF_FRAME      = TEME
TIME_SYSTEM    = UTC
MEAN_ELEMENT_THEORY = SGP/SGP4

EPOCH          = 2026-01-25T05:19:14.257920
MEAN_MOTION    = 14.61858181
ECCENTRICITY   = .0001902
INCLINATION    = 98.4099
RA_OF_ASC_NODE = 351.8218
ARG_OF_PERICENTER = 66.1120
MEAN_ANOMALY   = 348.8694

EPHEMERIS_TYPE = 0
CLASSIFICATION_TYPE = U
NORAD_CAT_ID   = 27424
ELEMENT_SET_NO = 999
REV_AT_EPOCH   = 26238
BSTAR          = .40301E-3
MEAN_MOTION_DOT = .1965E-4
MEAN_MOTION_DDOT = 0

CCSDS_OMM_VERS = 2.0
CREATION_DATE  = 
ORIGINATOR     = 

OBJECT_NAME    = CZ-4B R/B
OBJECT_ID      = 2002-024C
CENTER_NAME    = EARTH
REF_FRAME      = TEME
TIME_SYSTEM    = UTC
MEAN_ELEMENT_THEORY = SGP/SGP4

EPOCH          = 2026-01-25T03:32:00.413664
MEAN_MOTION    = 14.14538961
ECCENTRICITY   = .0050777
INCLINATION    = 98.8932
RA_OF_ASC_NODE = 78.7536
ARG_OF_PERICENTER = 145.8294
MEAN_ANOMALY   = 276.0939

EPHEMERIS_TYPE = 0
CLASSIFICATION_TYPE = U
NORAD_CAT_ID   = 27432
ELEMENT_SET_NO = 999
REV_AT_EPOCH   = 22308
BSTAR          = .78839E-4
MEAN_MOTION_DOT = .109E-5
MEAN_MOTION_DDOT = 0

CCSDS_OMM_VERS = 2.0
CREATION_DATE  = 
ORIGINATOR     = 

OBJECT_NAME    = MIDORI II (ADEOS-II)
OBJECT_ID      = 2002-056A
CENTER_NAME    = EARTH
REF_FRAME      = TEME
TIME_SYSTEM    = UTC
MEAN_ELEMENT_THEORY = SGP/SGP4

EPOCH          = 2026-01-25T02:53:05.493408
MEAN_MOTION    = 14.29247591
ECCENTRICITY   = .0001986
INCLINATION    = 98.7698
RA_OF_ASC_NODE = 343.3188
ARG_OF_PERICENTER = 104.0676
MEAN_ANOMALY   = 256.0726

EPHEMERIS_TYPE = 0
CLASSIFICATION_TYPE = U
NORAD_CAT_ID   = 27597
ELEMENT_SET_NO = 999
REV_AT_EPOCH   = 20407
BSTAR          = .28022E-3
MEAN_MOTION_DOT = .667E-5
MEAN_MOTION_DDOT = 0

CCSDS_OMM_VERS = 2.0
CREATION_DATE  = 
ORIGINATOR     = 

OBJECT_NAME    = H-2A R/B
OBJECT_ID      = 2002-056E
CENTER_NAME    = EARTH
REF_FRAME      = TEME
TIME_SYSTEM    = UTC
MEAN_ELEMENT_THEORY = SGP/SGP4

EPOCH          = 2026-01-24T11:18:41.025888
MEAN_MOTION    = 14.33723309
ECCENTRICITY   = .0069163
INCLINATION    = 98.3126
RA_OF_ASC_NODE = 346.5424
ARG_OF_PERICENTER = 293.9150
MEAN_ANOMALY   = 175.7162

EPHEMERIS_TYPE = 0
CLASSIFICATION_TYPE = U
NORAD_CAT_ID   = 27601
ELEMENT_SET_NO = 999
REV_AT_EPOCH   = 20777
BSTAR          = .25403722E-3
MEAN_MOTION_DOT = .682E-5
MEAN_MOTION_DDOT = 0

CCSDS_OMM_VERS = 2.0
CREATION_DATE  = 
ORIGINATOR     = 

OBJECT_NAME    = CZ-4B R/B
OBJECT_ID      = 2003-049C
CENTER_NAME    = EARTH
REF_FRAME      = TEME
TIME_SYSTEM    = UTC
MEAN_ELEMENT_THEORY = SGP/SGP4

EPOCH          = 2026-01-24T22:07:16.627008
MEAN_MOTION    = 14.54964845
ECCENTRICITY   = .0048392
INCLINATION    = 98.6829
RA_OF_ASC_NODE = 18.1274
ARG_OF_PERICENTER = 6.6949
MEAN_ANOMALY   = 353.4883

EPHEMERIS_TYPE = 0
CLASSIFICATION_TYPE = U
NORAD_CAT_ID   = 28059
ELEMENT_SET_NO = 999
REV_AT_EPOCH   = 18023
BSTAR          = .22068E-3
MEAN_MOTION_DOT = .913E-5
MEAN_MOTION_DDOT = 0

CCSDS_OMM_VERS = 2.0
CREATION_DATE  = 
ORIGINATOR     = 

OBJECT_NAME    = CZ-2C R/B
OBJECT_ID      = 2004-012C
CENTER_NAME    = EARTH
REF_FRAME      = TEME
TIME_SYSTEM    = UTC
MEAN_ELEMENT_THEORY = SGP/SGP4

EPOCH          = 2026-01-25T02:37:53.958720
MEAN_MOTION    = 15.59534460
ECCENTRICITY   = .001698
INCLINATION    = 97.7332
RA_OF_ASC_NODE = 86.4217
ARG_OF_PERICENTER = 110.7853
MEAN_ANOMALY   = 249.5223

EPHEMERIS_TYPE = 0
CLASSIFICATION_TYPE = U
NORAD_CAT_ID   = 28222
ELEMENT_SET_NO = 999
REV_AT_EPOCH   = 19747
BSTAR          = .74433E-3
MEAN_MOTION_DOT = .5969E-3
MEAN_MOTION_DDOT = 0

CCSDS_OMM_VERS = 2.0
CREATION_DATE  = 
ORIGINATOR     = 

OBJECT_NAME    = SL-16 R/B
OBJECT_ID      = 2004-021B
CENTER_NAME    = EARTH
REF_FRAME      = TEME
TIME_SYSTEM    = UTC
MEAN_ELEMENT_THEORY = SGP/SGP4

EPOCH          = 2026-01-25T02:38:33.592128
MEAN_MOTION    = 14.14591904
ECCENTRICITY   = .0002637
INCLINATION    = 71.0026
RA_OF_ASC_NODE = 323.9491
ARG_OF_PERICENTER = 120.1432
MEAN_ANOMALY   = 239.9952

EPHEMERIS_TYPE = 0
CLASSIFICATION_TYPE = U
NORAD_CAT_ID   = 28353
ELEMENT_SET_NO = 999
REV_AT_EPOCH   = 11667
BSTAR          = -.58459E-4
MEAN_MOTION_DOT = -.16E-5
MEAN_MOTION_DDOT = 0

CCSDS_OMM_VERS = 2.0
CREATION_DATE  = 
ORIGINATOR     = 

OBJECT_NAME    = CZ-4B R/B
OBJECT_ID      = 2004-035C
CENTER_NAME    = EARTH
REF_FRAME      = TEME
TIME_SYSTEM    = UTC
MEAN_ELEMENT_THEORY = SGP/SGP4

EPOCH          = 2026-01-25T01:14:04.142976
MEAN_MOTION    = 15.28215245
ECCENTRICITY   = .0034148
INCLINATION    = 97.3566
RA_OF_ASC_NODE = 59.8305
ARG_OF_PERICENTER = 122.0054
MEAN_ANOMALY   = 238.4512

EPHEMERIS_TYPE = 0
CLASSIFICATION_TYPE = U
NORAD_CAT_ID   = 28415
ELEMENT_SET_NO = 999
REV_AT_EPOCH   = 17324
BSTAR          = .4335E-3
MEAN_MOTION_DOT = .12059E-3
MEAN_MOTION_DDOT = 0

CCSDS_OMM_VERS = 2.0
CREATION_DATE  = 
ORIGINATOR     = 

OBJECT_NAME    = CZ-2C R/B
OBJECT_ID      = 2004-046B
CENTER_NAME    = EARTH
REF_FRAME      = TEME
TIME_SYSTEM    = UTC
MEAN_ELEMENT_THEORY = SGP/SGP4

EPOCH          = 2026-01-24T17:33:09.304416
MEAN_MOTION    = 14.26972557
ECCENTRICITY   = .01382818
INCLINATION    = 98.2000
RA_OF_ASC_NODE = 302.4433
ARG_OF_PERICENTER = 285.0750
MEAN_ANOMALY   = 73.5167

EPHEMERIS_TYPE = 0
CLASSIFICATION_TYPE = U
NORAD_CAT_ID   = 28480
ELEMENT_SET_NO = 999
REV_AT_EPOCH   = 10223
BSTAR          = .13637214E-3
MEAN_MOTION_DOT = .324E-5
MEAN_MOTION_DDOT = 0

CCSDS_OMM_VERS = 2.0
CREATION_DATE  = 
ORIGINATOR     = 

OBJECT_NAME    = ARIANE 5 R/B
OBJECT_ID      = 2004-049H
CENTER_NAME    = EARTH
REF_FRAME      = TEME
TIME_SYSTEM    = UTC
MEAN_ELEMENT_THEORY = SGP/SGP4

EPOCH          = 2026-01-24T21:49:02.448768
MEAN_MOTION    = 14.85158326
ECCENTRICITY   = .008526
INCLINATION    = 98.2557
RA_OF_ASC_NODE = 191.7496
ARG_OF_PERICENTER = 132.4462
MEAN_ANOMALY   = 228.4002

EPHEMERIS_TYPE = 0
CLASSIFICATION_TYPE = U
NORAD_CAT_ID   = 28499
ELEMENT_SET_NO = 999
REV_AT_EPOCH   = 13929
BSTAR          = .2095E-3
MEAN_MOTION_DOT = .1851E-4
MEAN_MOTION_DDOT = 0

CCSDS_OMM_VERS = 2.0
CREATION_DATE  = 
ORIGINATOR     = 

OBJECT_NAME    = CZ-2D R/B
OBJECT_ID      = 2005-024B
CENTER_NAME    = EARTH
REF_FRAME      = TEME
TIME_SYSTEM    = UTC
MEAN_ELEMENT_THEORY = SGP/SGP4

EPOCH          = 2026-01-24T23:24:57.521664
MEAN_MOTION    = 15.56299723
ECCENTRICITY   = .0005683
INCLINATION    = 97.3629
RA_OF_ASC_NODE = 38.6479
ARG_OF_PERICENTER = 155.8671
MEAN_ANOMALY   = 204.2851

EPHEMERIS_TYPE = 0
CLASSIFICATION_TYPE = U
NORAD_CAT_ID   = 28738
ELEMENT_SET_NO = 999
REV_AT_EPOCH   = 13297
BSTAR          = .66045E-3
MEAN_MOTION_DOT = .46565E-3
MEAN_MOTION_DDOT = 0

